METHANESAT              
1 59101U 24043D   25330.93050053  .00003330  00000+0  29704-3 0  9990
2 59101  97.8204  96.5257 0010061 331.9999  28.0680 14.96631639 94389
GOSAT-GW (IBUKI GW)     
1 64694U 25141A   25330.96448918  .00001138  00000+0  20889-3 0  9996
2 64694  98.0400 266.7645 0001455  78.6840 281.4528 14.67572204 22187
GHGSAT-C1               
1 46278U 20061G   25331.17013572  .00027049  00000+0  36281-3 0  9990
2 46278  97.2332  46.5481 0002863  79.5441 280.6137 15.57926365291897
GHGSAT-C12              
1 64529U 25135B   25331.14196951  .00005308  00000+0  26073-3 0  9998
2 64529  97.4607  83.2287 0005940 145.9160 214.2456 15.18472753 24143
GHGSAT-C13              
1 64548U 25135W   25331.11031485  .00004347  00000+0  20933-3 0  9997
2 64548  97.4632  83.4702 0002722  95.6475 264.5070 15.19275873 24157
GHGSAT-C2               
1 47509U 21006DA  25330.98974714  .00008238  00000+0  24634-3 0  9998
2 47509  97.2460  16.7365 0005863 158.1245 202.0250 15.34799689268807
GHGSAT-C3               
1 52737U 22057F   25331.19394546  .00008555  00000+0  28785-3 0  9990
2 52737  97.6333 105.1458 0007586 114.7889 245.4142 15.31024958194593
GHGSAT-C4               
1 52746U 22057Q   25331.14754522  .00008111  00000+0  27312-3 0  9992
2 52746  97.6261 104.1323 0007875 102.6866 257.5255 15.31015725194596
GHGSAT-C5               
1 52744U 22057N   25331.16467310  .00008083  00000+0  27225-3 0  9999
2 52744  97.6421 106.4540 0008584 111.8508 248.3646 15.31004518194591
GHGSAT-C6               
1 56204U 23054AC  25331.15427649  .00016423  00000+0  33452-3 0  9998
2 56204  97.3165 233.2329 0010584  65.0011 295.2336 15.46265974147163
GHGSAT-C7               
1 56209U 23054AH  25331.18971455  .00012234  00000+0  26265-3 0  9995
2 56209  97.3124 232.5429 0010467  58.3894 301.8375 15.44789551147156
GHGSAT-C8               
1 56186U 23054J   25331.19217991  .00015653  00000+0  31882-3 0  9997
2 56186  97.3130 232.7052 0008379  81.4300 278.7899 15.46299054147158
SENTINEL-5P             
1 42969U 17064A   25330.83693663  .00000115  00000+0  75456-4 0  9992
2 42969  98.7762 269.5641 0000980  83.4091 276.7197 14.19511359420853
ENMAP                   
1 52159U 22033C   25331.20808294  .00000659  00000+0  10570-3 0  9994
2 52159  97.9783  51.3477 0001419  89.4484 270.6887 14.74915478196886
PRISMA                  
1 44072U 19015A   25331.22001147  .00001153  00000+0  14615-3 0  9993
2 44072  97.8716  43.9011 0001154  90.3586 269.7760 14.83641368362100
SENTINEL-2A             
1 40697U 15028A   25331.18673193  .00000184  00000+0  86677-4 0  9994
2 40697  98.5710  43.9403 0001063  93.1615 266.9690 14.30817905544847
SENTINEL-2B             
1 42063U 17013A   25331.17944927  .00000186  00000+0  87694-4 0  9996
2 42063  98.5643  43.8431 0001122 103.0677 257.0631 14.30826084455751
SENTINEL-2C             
1 60989U 24157A   25331.14468257  .00000178  00000+0  84358-4 0  9999
2 60989  98.5618  43.8575 0001152 103.4259 256.7052 14.30820826 64096
LANDSAT 8               
1 39084U 13008A   25331.13708405  .00000507  00000+0  12252-3 0  9994
2 39084  98.2089  39.4393 0001128  86.9303 273.2024 14.57117022668475
LANDSAT 9               
1 49260U 21088A   25330.75944161  .00000548  00000+0  13163-3 0  9993
2 49260  98.2110  39.1005 0001172  91.2931 268.8401 14.57105564221527
